0 ECHO 1 DEB (METAL OBJ)
1 00053U 60009E   13281.31590223 -.00000086  00000-0  00000+0 0  4240
2 00053 047.2750 235.6151 0098587 058.5303 106.2847 12.17123192370871
0 ECHO 1 DEB (METAL OBJ)
1 00053U 60009E   13284.18326514 -.00000086  00000-0  00000+0 0  4259
2 00053 047.2747 226.7746 0098681 067.0117 070.0302 12.17123394371229
0 ECHO 1 DEB (METAL OBJ)
1 00053U 60009E   13286.23826675 -.00000086  00000-0  00000+0 0  4261
2 00053 047.2746 220.4387 0098800 073.0922 074.3085 12.17124024371477
0 ECHO 1 DEB (METAL OBJ)
1 00053U 60009E   13289.19373817 -.00000086  00000-0  00000+0 0  4275
2 00053 047.2743 211.3265 0098928 081.8312 064.1340 12.17124051371830
0 ECHO 1 DEB (METAL OBJ)
1 00053U 60009E   13292.14967839 -.00000086  00000-0  00000+0 0  4288
2 00053 047.2739 202.2130 0098998 090.5761 056.0089 12.17123707372194
0 ECHO 1 DEB (METAL OBJ)
1 00053U 60009E   13294.20641421 -.00000086  00000-0  00000+0 0  4294
2 00053 047.2734 195.8718 0099067 096.6607 067.8906 12.17123902372445
